HULIANWANG DIGUI 12D    
1 65998U 25231D   25302.69156915  .00000091  00000+0  15096-3 0  9997
2 65998  50.0000 302.2009 0006675 311.6325  48.4008 14.04582615  1927
HULIANWANG DIGUI 12E    
1 65999U 25231E   25302.69194779  .00000052  00000+0  12844-3 0  9993
2 65999  50.0019 302.2062 0008252 321.4365  38.5949 14.03841961  1928
HULIANWANG DIGUI 12F    
1 66000U 25231F   25302.97346356  .00000091  00000+0  14994-3 0  9999
2 66000  50.0060 301.0368 0005532 317.5425  42.5051 14.04996594  1962
HULIANWANG DIGUI 12G    
1 66001U 25231G   25302.61775554  .00000115  00000+0  16801-3 0  9993
2 66001  50.0029 302.4809 0006695 329.6587  30.3929 14.03863564  1910
HULIANWANG DIGUI 12H    
1 66002U 25231H   25301.83576209  .00000284  00000+0  27456-3 0  9998
2 66002  50.0048 305.6767 0006207 299.3025  60.7259 14.03853112  1808
HULIANWANG DIGUI 12J    
1 66003U 25231J   25300.97848525  .00000139  00000+0  17740-3 0  9990
2 66003  50.0043 309.1429 0005603 313.2008  46.8428 14.05796708  1682
CZ-8A R/B               
1 66004U 25231K   25302.94630878 -.00000044  00000+0  43511-4 0  9992
2 66004  50.0036 298.8047 0116697 132.9441 228.1334 14.30031346  1991
STARLINK-34849          
1 66005U 25232A   25302.91668981 -.01825528  00000+0 -14070-1 0  9996
2 66005  53.1586 355.2443 0001307  82.1494 105.9247 15.74470971  2502
STARLINK-35336          
1 66006U 25232B   25302.91668981 -.01835860  00000+0 -14151-1 0  9997
2 66006  53.1587 355.2400 0001133  72.1737 117.7995 15.74488901  2517
STARLINK-35196          
1 66007U 25232C   25302.91668981 -.01843767  00000+0 -14219-1 0  9998
2 66007  53.1588 355.2365 0001147  83.2183 108.6787 15.74491711  2513
STARLINK-35236          
1 66008U 25232D   25302.91668981 -.01908972  00000+0 -14740-1 0  9998
2 66008  53.1583 355.2319 0000885  48.2801 145.4226 15.74588521  2517
STARLINK-35276          
1 66009U 25232E   25302.91668981 -.01814891  00000+0 -13980-1 0  9990
2 66009  53.1585 355.2280 0001119  77.4959 118.2387 15.74465657  2505
