CCSDS_OMM_VERS = 2.0
CREATION_DATE  = 
ORIGINATOR     = 

OBJECT_NAME    = HULIANWANG DIGUI 12D
OBJECT_ID      = 2025-231D
CENTER_NAME    = EARTH
REF_FRAME      = TEME
TIME_SYSTEM    = UTC
MEAN_ELEMENT_THEORY = SGP/SGP4

EPOCH          = 2025-10-29T16:35:51.574560
MEAN_MOTION    = 14.04582615
ECCENTRICITY   = .00066752
INCLINATION    = 50.0000
RA_OF_ASC_NODE = 302.2009
ARG_OF_PERICENTER = 311.6325
MEAN_ANOMALY   = 48.4008

EPHEMERIS_TYPE = 0
CLASSIFICATION_TYPE = U
NORAD_CAT_ID   = 65998
ELEMENT_SET_NO = 999
REV_AT_EPOCH   = 192
BSTAR          = .15095694E-3
MEAN_MOTION_DOT = .91E-6
MEAN_MOTION_DDOT = 0

CCSDS_OMM_VERS = 2.0
CREATION_DATE  = 
ORIGINATOR     = 

OBJECT_NAME    = HULIANWANG DIGUI 12E
OBJECT_ID      = 2025-231E
CENTER_NAME    = EARTH
REF_FRAME      = TEME
TIME_SYSTEM    = UTC
MEAN_ELEMENT_THEORY = SGP/SGP4

EPOCH          = 2025-10-29T16:36:24.289056
MEAN_MOTION    = 14.03841961
ECCENTRICITY   = .00082525
INCLINATION    = 50.0019
RA_OF_ASC_NODE = 302.2062
ARG_OF_PERICENTER = 321.4365
MEAN_ANOMALY   = 38.5949

EPHEMERIS_TYPE = 0
CLASSIFICATION_TYPE = U
NORAD_CAT_ID   = 65999
ELEMENT_SET_NO = 999
REV_AT_EPOCH   = 192
BSTAR          = .12844397E-3
MEAN_MOTION_DOT = .52E-6
MEAN_MOTION_DDOT = 0

CCSDS_OMM_VERS = 2.0
CREATION_DATE  = 
ORIGINATOR     = 

OBJECT_NAME    = HULIANWANG DIGUI 12F
OBJECT_ID      = 2025-231F
CENTER_NAME    = EARTH
REF_FRAME      = TEME
TIME_SYSTEM    = UTC
MEAN_ELEMENT_THEORY = SGP/SGP4

EPOCH          = 2025-10-29T23:21:47.251584
MEAN_MOTION    = 14.04996594
ECCENTRICITY   = .00055329
INCLINATION    = 50.0060
RA_OF_ASC_NODE = 301.0368
ARG_OF_PERICENTER = 317.5425
MEAN_ANOMALY   = 42.5051

EPHEMERIS_TYPE = 0
CLASSIFICATION_TYPE = U
NORAD_CAT_ID   = 66000
ELEMENT_SET_NO = 999
REV_AT_EPOCH   = 196
BSTAR          = .14993776E-3
MEAN_MOTION_DOT = .91E-6
MEAN_MOTION_DDOT = 0

CCSDS_OMM_VERS = 2.0
CREATION_DATE  = 
ORIGINATOR     = 

OBJECT_NAME    = HULIANWANG DIGUI 12G
OBJECT_ID      = 2025-231G
CENTER_NAME    = EARTH
REF_FRAME      = TEME
TIME_SYSTEM    = UTC
MEAN_ELEMENT_THEORY = SGP/SGP4

EPOCH          = 2025-10-29T14:49:34.078656
MEAN_MOTION    = 14.03863564
ECCENTRICITY   = .00066951
INCLINATION    = 50.0029
RA_OF_ASC_NODE = 302.4809
ARG_OF_PERICENTER = 329.6587
MEAN_ANOMALY   = 30.3929

EPHEMERIS_TYPE = 0
CLASSIFICATION_TYPE = U
NORAD_CAT_ID   = 66001
ELEMENT_SET_NO = 999
REV_AT_EPOCH   = 191
BSTAR          = .16800923E-3
MEAN_MOTION_DOT = .115E-5
MEAN_MOTION_DDOT = 0

CCSDS_OMM_VERS = 2.0
CREATION_DATE  = 
ORIGINATOR     = 

OBJECT_NAME    = HULIANWANG DIGUI 12H
OBJECT_ID      = 2025-231H
CENTER_NAME    = EARTH
REF_FRAME      = TEME
TIME_SYSTEM    = UTC
MEAN_ELEMENT_THEORY = SGP/SGP4

EPOCH          = 2025-10-28T20:03:29.844576
MEAN_MOTION    = 14.03853112
ECCENTRICITY   = .0006207
INCLINATION    = 50.0048
RA_OF_ASC_NODE = 305.6767
ARG_OF_PERICENTER = 299.3025
MEAN_ANOMALY   = 60.7259

EPHEMERIS_TYPE = 0
CLASSIFICATION_TYPE = U
NORAD_CAT_ID   = 66002
ELEMENT_SET_NO = 999
REV_AT_EPOCH   = 180
BSTAR          = .27456118E-3
MEAN_MOTION_DOT = .284E-5
MEAN_MOTION_DDOT = 0

CCSDS_OMM_VERS = 2.0
CREATION_DATE  = 
ORIGINATOR     = 

OBJECT_NAME    = HULIANWANG DIGUI 12J
OBJECT_ID      = 2025-231J
CENTER_NAME    = EARTH
REF_FRAME      = TEME
TIME_SYSTEM    = UTC
MEAN_ELEMENT_THEORY = SGP/SGP4

EPOCH          = 2025-10-27T23:29:01.125600
MEAN_MOTION    = 14.05796708
ECCENTRICITY   = .00056033
INCLINATION    = 50.0043
RA_OF_ASC_NODE = 309.1429
ARG_OF_PERICENTER = 313.2008
MEAN_ANOMALY   = 46.8428

EPHEMERIS_TYPE = 0
CLASSIFICATION_TYPE = U
NORAD_CAT_ID   = 66003
ELEMENT_SET_NO = 999
REV_AT_EPOCH   = 168
BSTAR          = .17739515E-3
MEAN_MOTION_DOT = .139E-5
MEAN_MOTION_DDOT = 0

CCSDS_OMM_VERS = 2.0
CREATION_DATE  = 
ORIGINATOR     = 

OBJECT_NAME    = CZ-8A R/B
OBJECT_ID      = 2025-231K
CENTER_NAME    = EARTH
REF_FRAME      = TEME
TIME_SYSTEM    = UTC
MEAN_ELEMENT_THEORY = SGP/SGP4

EPOCH          = 2025-10-29T22:42:41.078592
MEAN_MOTION    = 14.30031346
ECCENTRICITY   = .01166973
INCLINATION    = 50.0036
RA_OF_ASC_NODE = 298.8047
ARG_OF_PERICENTER = 132.9441
MEAN_ANOMALY   = 228.1334

EPHEMERIS_TYPE = 0
CLASSIFICATION_TYPE = U
NORAD_CAT_ID   = 66004
ELEMENT_SET_NO = 999
REV_AT_EPOCH   = 199
BSTAR          = .43510843E-4
MEAN_MOTION_DOT = -.44E-6
MEAN_MOTION_DDOT = 0

CCSDS_OMM_VERS = 2.0
CREATION_DATE  = 
ORIGINATOR     = 

OBJECT_NAME    = STARLINK-34849
OBJECT_ID      = 2025-232A
CENTER_NAME    = EARTH
REF_FRAME      = TEME
TIME_SYSTEM    = UTC
MEAN_ELEMENT_THEORY = SGP/SGP4

EPOCH          = 2025-10-29T22:00:01.999584
MEAN_MOTION    = 15.74470971
ECCENTRICITY   = .00013076
INCLINATION    = 53.1586
RA_OF_ASC_NODE = 355.2443
ARG_OF_PERICENTER = 82.1494
MEAN_ANOMALY   = 105.9247

EPHEMERIS_TYPE = 0
CLASSIFICATION_TYPE = U
NORAD_CAT_ID   = 66005
ELEMENT_SET_NO = 999
REV_AT_EPOCH   = 250
BSTAR          = -.14069741E-1
MEAN_MOTION_DOT = -.1825528E-1
MEAN_MOTION_DDOT = 0

CCSDS_OMM_VERS = 2.0
CREATION_DATE  = 
ORIGINATOR     = 

OBJECT_NAME    = STARLINK-35336
OBJECT_ID      = 2025-232B
CENTER_NAME    = EARTH
REF_FRAME      = TEME
TIME_SYSTEM    = UTC
MEAN_ELEMENT_THEORY = SGP/SGP4

EPOCH          = 2025-10-29T22:00:01.999584
MEAN_MOTION    = 15.74488901
ECCENTRICITY   = .00011338
INCLINATION    = 53.1587
RA_OF_ASC_NODE = 355.2400
ARG_OF_PERICENTER = 72.1737
MEAN_ANOMALY   = 117.7995

EPHEMERIS_TYPE = 0
CLASSIFICATION_TYPE = U
NORAD_CAT_ID   = 66006
ELEMENT_SET_NO = 999
REV_AT_EPOCH   = 251
BSTAR          = -.14151278E-1
MEAN_MOTION_DOT = -.183586E-1
MEAN_MOTION_DDOT = 0

CCSDS_OMM_VERS = 2.0
CREATION_DATE  = 
ORIGINATOR     = 

OBJECT_NAME    = STARLINK-35196
OBJECT_ID      = 2025-232C
CENTER_NAME    = EARTH
REF_FRAME      = TEME
TIME_SYSTEM    = UTC
MEAN_ELEMENT_THEORY = SGP/SGP4

EPOCH          = 2025-10-29T22:00:01.999584
MEAN_MOTION    = 15.74491711
ECCENTRICITY   = .00011475
INCLINATION    = 53.1588
RA_OF_ASC_NODE = 355.2365
ARG_OF_PERICENTER = 83.2183
MEAN_ANOMALY   = 108.6787

EPHEMERIS_TYPE = 0
CLASSIFICATION_TYPE = U
NORAD_CAT_ID   = 66007
ELEMENT_SET_NO = 999
REV_AT_EPOCH   = 251
BSTAR          = -.14219447E-1
MEAN_MOTION_DOT = -.1843767E-1
MEAN_MOTION_DDOT = 0

CCSDS_OMM_VERS = 2.0
CREATION_DATE  = 
ORIGINATOR     = 

OBJECT_NAME    = STARLINK-35236
OBJECT_ID      = 2025-232D
CENTER_NAME    = EARTH
REF_FRAME      = TEME
TIME_SYSTEM    = UTC
MEAN_ELEMENT_THEORY = SGP/SGP4

EPOCH          = 2025-10-29T22:00:01.999584
MEAN_MOTION    = 15.74588521
ECCENTRICITY   = .00008857
INCLINATION    = 53.1583
RA_OF_ASC_NODE = 355.2319
ARG_OF_PERICENTER = 48.2801
MEAN_ANOMALY   = 145.4226

EPHEMERIS_TYPE = 0
CLASSIFICATION_TYPE = U
NORAD_CAT_ID   = 66008
ELEMENT_SET_NO = 999
REV_AT_EPOCH   = 251
BSTAR          = -.14739977E-1
MEAN_MOTION_DOT = -.1908972E-1
MEAN_MOTION_DDOT = 0

CCSDS_OMM_VERS = 2.0
CREATION_DATE  = 
ORIGINATOR     = 

OBJECT_NAME    = STARLINK-35276
OBJECT_ID      = 2025-232E
CENTER_NAME    = EARTH
REF_FRAME      = TEME
TIME_SYSTEM    = UTC
MEAN_ELEMENT_THEORY = SGP/SGP4

EPOCH          = 2025-10-29T22:00:01.999584
MEAN_MOTION    = 15.74465657
ECCENTRICITY   = .00011197
INCLINATION    = 53.1585
RA_OF_ASC_NODE = 355.2280
ARG_OF_PERICENTER = 77.4959
MEAN_ANOMALY   = 118.2387

EPHEMERIS_TYPE = 0
CLASSIFICATION_TYPE = U
NORAD_CAT_ID   = 66009
ELEMENT_SET_NO = 999
REV_AT_EPOCH   = 250
BSTAR          = -.1398041E-1
MEAN_MOTION_DOT = -.1814891E-1
MEAN_MOTION_DDOT = 0

